[{"OBJECT_NAME":"STARLINK-2493","OBJECT_ID":"2021-027BL","EPOCH":"2026-03-10T00:00:02.999808","MEAN_MOTION":15.12929872,"ECCENTRICITY":0.00012937,"INCLINATION":53.0812,"RA_OF_ASC_NODE":150.1407,"ARG_OF_PERICENTER":86.7276,"MEAN_ANOMALY":174.3969,"EPHEMERIS_TYPE":0,"CLASSIFICATION_TYPE":"U","NORAD_CAT_ID":48150,"ELEMENT_SET_NO":999,"REV_AT_EPOCH":559,"BSTAR":0.045406962,"MEAN_MOTION_DOT":0.00872289,"MEAN_MOTION_DDOT":0},{"OBJECT_NAME":"OBJECT B","OBJECT_ID":"2025-234B","EPOCH":"2026-03-09T22:59:30.120864","MEAN_MOTION":15.19966812,"ECCENTRICITY":0.00128166,"INCLINATION":97.4853,"RA_OF_ASC_NODE":138.9577,"ARG_OF_PERICENTER":83.221,"MEAN_ANOMALY":277.0483,"EPHEMERIS_TYPE":0,"CLASSIFICATION_TYPE":"U","NORAD_CAT_ID":66054,"ELEMENT_SET_NO":999,"REV_AT_EPOCH":2156,"BSTAR":0.0003176198,"MEAN_MOTION_DOT":6.781e-5,"MEAN_MOTION_DDOT":0}]
